
# Worst residual: 17.69 km
# MJD 56615.000000 (2013 Nov 19  0:00)
1967-040A = NORAD 02765 = UU0E325 = UV18B9C = Vela 7
1 02765U 67040A   13323.49922241  .00000000  00000-0  00000-0 0    05
2 02765 009.7362 322.2760 4786239 200.0969 024.8996 00.21591847    01

# Worst residual: 3.00 km
# MJD 56616.000000 (2013 Nov 20  0:00)
1967-040A = NORAD 02765 = UU0E325 = UV18B9C = Vela 7
1 02765U 67040A   13324.49922241  .00000000  00000-0  00000-0 0    06
2 02765 009.7289 322.2681 4792360 200.2133 102.3046 00.21545731    07

# Worst residual: 8.67 km
# MJD 56617.000000 (2013 Nov 21  0:00)
1967-040A = NORAD 02765 = UU0E325 = UV18B9C = Vela 7
1 02765U 67040A   13325.49922241  .00000000  00000-0  00000-0 0    07
2 02765 009.7204 322.2783 4793895 200.1514 179.9904 00.21559822    02

# Worst residual: 14.31 km
# MJD 56618.000000 (2013 Nov 22  0:00)
1967-040A = NORAD 02765 = UU0E325 = UV18B9C = Vela 7
1 02765U 67040A   13326.49922241  .00000000  00000-0  00000-0 0    08
2 02765 009.7125 322.2941 4795603 200.0419 257.8065 00.21547202    05

# Worst residual: 24.85 km
# MJD 56619.000000 (2013 Nov 23  0:00)
1967-040A = NORAD 02765 = UU0E325 = UV18B9C = Vela 7
1 02765U 67040A   13327.49922241  .00000000  00000-0  00000-0 0    09
2 02765 009.7032 322.2642 4809332 200.0360 335.4921 00.21500603    08

# Worst residual: 14.97 km
# MJD 56620.000000 (2013 Nov 24  0:00)
1967-040A = NORAD 02765 = UU0E325 = UV18B9C = Vela 7
1 02765U 67040A   13328.49922241  .00000000  00000-0  00000-0 0    00
2 02765 009.7029 322.3027 4799948 200.2067 052.8906 00.21542183    01

# Worst residual: 3.14 km
# MJD 56621.000000 (2013 Nov 25  0:00)
1967-040A = NORAD 02765 = UU0E325 = UV18B9C = Vela 7
1 02765U 67040A   13329.49922241  .00000000  00000-0  00000-0 0    01
2 02765 009.6950 322.3147 4797747 200.1541 130.5506 00.21565153    09

# Worst residual: 1.46 km
# MJD 56622.000000 (2013 Nov 26  0:00)
1967-040A = NORAD 02765 = UU0E325 = UV18B9C = Vela 7
1 02765U 67040A   13330.49922241  .00000000  00000-0  00000-0 0    03
2 02765 009.6926 322.3352 4797837 200.1370 208.1697 00.21567441    05

# Worst residual: 6.28 km
# MJD 56623.000000 (2013 Nov 27  0:00)
1967-040A = NORAD 02765 = UU0E325 = UV18B9C = Vela 7
1 02765U 67040A   13331.49922241  .00000000  00000-0  00000-0 0    04
2 02765 009.6855 322.3562 4796862 200.1108 285.7820 00.21559295    02

# Worst residual: 38.82 km
# MJD 56624.000000 (2013 Nov 28  0:00)
1967-040A = NORAD 02765 = UU0E325 = UV18B9C = Vela 7
1 02765U 67040A   13332.49922241  .00000000  00000-0  00000-0 0    05
2 02765 009.6770 322.3478 4812717 200.2092 003.3555 00.21503646    03

# Worst residual: 30.92 km
# MJD 56625.000000 (2013 Nov 29  0:00)
1967-040A = NORAD 02765 = UU0E325 = UV18B9C = Vela 7
1 02765U 67040A   13333.49922241  .00000000  00000-0  00000-0 0    06
2 02765 009.6697 322.3425 4797237 200.4379 080.7517 00.21505602    03

# Worst residual: 13.22 km
# MJD 56626.000000 (2013 Nov 30  0:00)
1967-040A = NORAD 02765 = UU0E325 = UV18B9C = Vela 7
1 02765U 67040A   13334.49922241  .00000000  00000-0  00000-0 0    07
2 02765 009.6621 322.3513 4788453 200.2622 158.6745 00.21545611    09

# Worst residual: 3.52 km
# MJD 56627.000000 (2013 Dec  1  0:00)
1967-040A = NORAD 02765 = UU0E325 = UV18B9C = Vela 7
1 02765U 67040A   13335.49922241  .00000000  00000-0  00000-0 0    08
2 02765 009.6543 322.3666 4788425 200.2132 236.3185 00.21546049    04

# Worst residual: 30.53 km
# MJD 56628.000000 (2013 Dec  2  0:00)
1967-040A = NORAD 02765 = UU0E325 = UV18B9C = Vela 7
1 02765U 67040A   13336.49922241  .00000000  00000-0  00000-0 0    09
2 02765 009.6471 322.3881 4780812 200.3673 313.5776 00.21597945    01

# Worst residual: 34.21 km
# MJD 56629.000000 (2013 Dec  3  0:00)
1967-040A = NORAD 02765 = UU0E325 = UV18B9C = Vela 7
1 02765U 67040A   13337.49922241  .00000000  00000-0  00000-0 0    00
2 02765 009.6368 322.4001 4775158 200.3057 031.2729 00.21616180    09

# Worst residual: 14.44 km
# MJD 56630.000000 (2013 Dec  4  0:00)
1967-040A = NORAD 02765 = UU0E325 = UV18B9C = Vela 7
1 02765U 67040A   13338.49922241  .00000000  00000-0  00000-0 0    01
2 02765 009.6068 322.4892 4799028 200.2575 108.5881 00.21563148    02

# Worst residual: 14.01 km
# MJD 56631.000000 (2013 Dec  5  0:00)
1967-040A = NORAD 02765 = UU0E325 = UV18B9C = Vela 7
1 02765U 67040A   13339.49922241  .00000000  00000-0  00000-0 0    02
2 02765 009.5758 322.4961 4812150 200.1329 186.4625 00.21603451    05

# Worst residual: 19.80 km
# MJD 56632.000000 (2013 Dec  6  0:00)
1967-040A = NORAD 02765 = UU0E325 = UV18B9C = Vela 7
1 02765U 67040A   13340.49922241  .00000000  00000-0  00000-0 0    04
2 02765 009.5689 322.5232 4813198 199.9348 264.5708 00.21574667    05

# Worst residual: 26.29 km
# MJD 56633.000000 (2013 Dec  7  0:00)
1967-040A = NORAD 02765 = UU0E325 = UV18B9C = Vela 7
1 02765U 67040A   13341.49922241  .00000000  00000-0  00000-0 0    05
2 02765 009.5618 322.4843 4825965 199.9223 342.3289 00.21517444    00

# Worst residual: 11.78 km
# MJD 56634.000000 (2013 Dec  8  0:00)
1967-040A = NORAD 02765 = UU0E325 = UV18B9C = Vela 7
1 02765U 67040A   13342.49922241  .00000000  00000-0  00000-0 0    06
2 02765 009.5635 322.5498 4812145 200.0003 059.8892 00.21581197    08

# Worst residual: 19.94 km
# MJD 56635.000000 (2013 Dec  9  0:00)
1967-040A = NORAD 02765 = UU0E325 = UV18B9C = Vela 7
1 02765U 67040A   13343.49922241  .00000000  00000-0  00000-0 0    07
2 02765 009.5368 322.5909 4799670 200.1503 137.2886 00.21537018    08

# Worst residual: 25.89 km
# MJD 56636.000000 (2013 Dec 10  0:00)
1967-040A = NORAD 02765 = UU0E325 = UV18B9C = Vela 7
1 02765U 67040A   13344.49922241  .00000000  00000-0  00000-0 0    08
2 02765 009.4925 322.5375 4780482 200.4836 214.0533 00.21490038    09

# Worst residual: 11.11 km
# MJD 56637.000000 (2013 Dec 11  0:00)
1967-040A = NORAD 02765 = UU0E325 = UV18B9C = Vela 7
1 02765U 67040A   13345.49922241  .00000000  00000-0  00000-0 0    09
2 02765 009.4752 322.4917 4778720 200.8059 290.9408 00.21543852    08
